IRIDIUM 166             
1 43570U 18061B   25283.17488963  .00000304  00000+0  10152-3 0  9999
2 43570  86.4018 161.2531 0001976  78.9432 281.1986 14.34219434377561
IRIDIUM 158             
1 43571U 18061C   25283.21294482  .00000320  00000+0  10715-3 0  9999
2 43571  86.4018 161.2472 0002269  84.4896 275.6558 14.34218366377531
IRIDIUM 165             
1 43572U 18061D   25283.16854654  .00000341  00000+0  11452-3 0  9999
2 43572  86.4019 161.3071 0002032  82.7018 277.4408 14.34219048377558
IRIDIUM 155             
1 43573U 18061E   25282.36303589  .00000884  00000+0  30850-3 0  9992
2 43573  86.4016 161.5248 0002293  77.8212 282.3241 14.34217575377401
IRIDIUM 154             
1 43574U 18061F   25283.18125045  .00000338  00000+0  11368-3 0  9990
2 43574  86.4020 161.3045 0002094  83.0069 277.1365 14.34212950377577
IRIDIUM 163             
1 43575U 18061G   25283.16220470  .00000021  00000+0  43622-6 0  9997
2 43575  86.4018 161.2357 0002209  86.5172 273.6276 14.34218191377543
IRIDIUM 156             
1 43576U 18061H   25283.06706464  .00000254  00000+0  83760-4 0  9992
2 43576  86.4017 161.2825 0002208  76.3546 283.7896 14.34218541377521
IRIDIUM 164             
1 43577U 18061J   25283.18757306  .00000107  00000+0  31056-4 0  9995
2 43577  86.4017 161.2685 0001931  80.7666 279.3748 14.34217438377587
